{
  "type": "FeatureCollection",
  "features": [
    {
      "type": "Feature",
      "properties": {
        "name": "Київська область",
        "name_en": "Kyiv Oblast"
      },
      "geometry": {
        "type": "Polygon",
        "coordinates": [[
          [29.5, 51.2], [31.5, 51.2], [31.5, 49.8], [29.5, 49.8], [29.5, 51.2]
        ]]
      }
    },
    {
      "type": "Feature",
      "properties": {
        "name": "Львівська область",
        "name_en": "Lviv Oblast"
      },
      "geometry": {
        "type": "Polygon",
        "coordinates": [[
          [22.5, 50.5], [25.0, 50.5], [25.0, 49.0], [22.5, 49.0], [22.5, 50.5]
        ]]
      }
    },
    {
      "type": "Feature",
      "properties": {
        "name": "Харківська область",
        "name_en": "Kharkiv Oblast"
      },
      "geometry": {
        "type": "Polygon",
        "coordinates": [[
          [35.0, 50.5], [37.5, 50.5], [37.5, 49.0], [35.0, 49.0], [35.0, 50.5]
        ]]
      }
    },
    {
      "type": "Feature",
      "properties": {
        "name": "Одеська область",
        "name_en": "Odesa Oblast"
      },
      "geometry": {
        "type": "Polygon",
        "coordinates": [[
          [28.0, 47.5], [31.0, 47.5], [31.0, 45.5], [28.0, 45.5], [28.0, 47.5]
        ]]
      }
    },
    {
      "type": "Feature",
      "properties": {
        "name": "Дніпропетровська область",
        "name_en": "Dnipropetrovsk Oblast"
      },
      "geometry": {
        "type": "Polygon",
        "coordinates": [[
          [33.5, 49.5], [36.0, 49.5], [36.0, 47.5], [33.5, 47.5], [33.5, 49.5]
        ]]
      }
    },
    {
      "type": "Feature",
      "properties": {
        "name": "Донецька область",
        "name_en": "Donetsk Oblast"
      },
      "geometry": {
        "type": "Polygon",
        "coordinates": [[
          [36.5, 49.0], [39.0, 49.0], [39.0, 47.0], [36.5, 47.0], [36.5, 49.0]
        ]]
      }
    },
    {
      "type": "Feature",
      "properties": {
        "name": "Запорізька область",
        "name_en": "Zaporizhzhia Oblast"
      },
      "geometry": {
        "type": "Polygon",
        "coordinates": [[
          [34.0, 48.0], [36.5, 48.0], [36.5, 46.5], [34.0, 46.5], [34.0, 48.0]
        ]]
      }
    },
    {
      "type": "Feature",
      "properties": {
        "name": "Івано-Франківська область",
        "name_en": "Ivano-Frankivsk Oblast"
      },
      "geometry": {
        "type": "Polygon",
        "coordinates": [[
          [23.5, 49.0], [25.5, 49.0], [25.5, 48.0], [23.5, 48.0], [23.5, 49.0]
        ]]
      }
    },
    {
      "type": "Feature",
      "properties": {
        "name": "Волинська область",
        "name_en": "Volyn Oblast"
      },
      "geometry": {
        "type": "Polygon",
        "coordinates": [[
          [23.5, 51.5], [26.0, 51.5], [26.0, 50.5], [23.5, 50.5], [23.5, 51.5]
        ]]
      }
    },
    {
      "type": "Feature",
      "properties": {
        "name": "Луганська область",
        "name_en": "Luhansk Oblast"
      },
      "geometry": {
        "type": "Polygon",
        "coordinates": [[
          [38.0, 49.5], [40.0, 49.5], [40.0, 48.0], [38.0, 48.0], [38.0, 49.5]
        ]]
      }
    },
    {
      "type": "Feature",
      "properties": {
        "name": "Рівненська область",
        "name_en": "Rivne Oblast"
      },
      "geometry": {
        "type": "Polygon",
        "coordinates": [[
          [25.0, 51.5], [27.5, 51.5], [27.5, 50.0], [25.0, 50.0], [25.0, 51.5]
        ]]
      }
    },
    {
      "type": "Feature",
      "properties": {
        "name": "Вінницька область",
        "name_en": "Vinnytsia Oblast"
      },
      "geometry": {
        "type": "Polygon",
        "coordinates": [[
          [27.0, 49.5], [29.5, 49.5], [29.5, 48.0], [27.0, 48.0], [27.0, 49.5]
        ]]
      }
    },
    {
      "type": "Feature",
      "properties": {
        "name": "Житомирська область",
        "name_en": "Zhytomyr Oblast"
      },
      "geometry": {
        "type": "Polygon",
        "coordinates": [[
          [27.0, 51.5], [29.5, 51.5], [29.5, 49.5], [27.0, 49.5], [27.0, 51.5]
        ]]
      }
    },
    {
      "type": "Feature",
      "properties": {
        "name": "Закарпатська область",
        "name_en": "Zakarpattia Oblast"
      },
      "geometry": {
        "type": "Polygon",
        "coordinates": [[
          [22.0, 49.0], [23.5, 49.0], [23.5, 48.0], [22.0, 48.0], [22.0, 49.0]
        ]]
      }
    },
    {
      "type": "Feature",
      "properties": {
        "name": "Кіровоградська область",
        "name_en": "Kirovohrad Oblast"
      },
      "geometry": {
        "type": "Polygon",
        "coordinates": [[
          [30.5, 49.5], [33.5, 49.5], [33.5, 47.5], [30.5, 47.5], [30.5, 49.5]
        ]]
      }
    },
    {
      "type": "Feature",
      "properties": {
        "name": "Миколаївська область",
        "name_en": "Mykolaiv Oblast"
      },
      "geometry": {
        "type": "Polygon",
        "coordinates": [[
          [30.0, 47.5], [33.0, 47.5], [33.0, 46.0], [30.0, 46.0], [30.0, 47.5]
        ]]
      }
    },
    {
      "type": "Feature",
      "properties": {
        "name": "Полтавська область",
        "name_en": "Poltava Oblast"
      },
      "geometry": {
        "type": "Polygon",
        "coordinates": [[
          [32.5, 50.5], [35.0, 50.5], [35.0, 49.0], [32.5, 49.0], [32.5, 50.5]
        ]]
      }
    },
    {
      "type": "Feature",
      "properties": {
        "name": "Сумська область",
        "name_en": "Sumy Oblast"
      },
      "geometry": {
        "type": "Polygon",
        "coordinates": [[
          [32.5, 52.0], [35.5, 52.0], [35.5, 50.5], [32.5, 50.5], [32.5, 52.0]
        ]]
      }
    },
    {
      "type": "Feature",
      "properties": {
        "name": "Тернопільська область",
        "name_en": "Ternopil Oblast"
      },
      "geometry": {
        "type": "Polygon",
        "coordinates": [[
          [24.5, 50.0], [26.5, 50.0], [26.5, 48.5], [24.5, 48.5], [24.5, 50.0]
        ]]
      }
    },
    {
      "type": "Feature",
      "properties": {
        "name": "Херсонська область",
        "name_en": "Kherson Oblast"
      },
      "geometry": {
        "type": "Polygon",
        "coordinates": [[
          [32.0, 47.0], [34.5, 47.0], [34.5, 45.5], [32.0, 45.5], [32.0, 47.0]
        ]]
      }
    },
    {
      "type": "Feature",
      "properties": {
        "name": "Хмельницька область",
        "name_en": "Khmelnytskyi Oblast"
      },
      "geometry": {
        "type": "Polygon",
        "coordinates": [[
          [26.0, 50.5], [28.0, 50.5], [28.0, 48.5], [26.0, 48.5], [26.0, 50.5]
        ]]
      }
    },
    {
      "type": "Feature",
      "properties": {
        "name": "Черкаська область",
        "name_en": "Cherkasy Oblast"
      },
      "geometry": {
        "type": "Polygon",
        "coordinates": [[
          [30.0, 50.0], [32.5, 50.0], [32.5, 48.5], [30.0, 48.5], [30.0, 50.0]
        ]]
      }
    },
    {
      "type": "Feature",
      "properties": {
        "name": "Чернівецька область",
        "name_en": "Chernivtsi Oblast"
      },
      "geometry": {
        "type": "Polygon",
        "coordinates": [[
          [25.0, 48.5], [26.5, 48.5], [26.5, 47.5], [25.0, 47.5], [25.0, 48.5]
        ]]
      }
    },
    {
      "type": "Feature",
      "properties": {
        "name": "Чернігівська область",
        "name_en": "Chernihiv Oblast"
      },
      "geometry": {
        "type": "Polygon",
        "coordinates": [[
          [30.0, 52.5], [33.0, 52.5], [33.0, 50.5], [30.0, 50.5], [30.0, 52.5]
        ]]
      }
    }
  ]
}
